Name,Address,Plus Code,Phone,Website,Email,Phone from Website,Booking Link,Opening Hours,Google Maps URL
"USA Roofing, LLC",4.8(46),"
HPP4+5C Millsboro, Delaware, USA",+1 302-864-8181,N/A,N/A,N/A,N/A,N/A,"https://www.google.com/maps/place/USA+Roofing,+LLC/@36.9460981,-97.8754807,4z/data=!4m10!1m2!2m1!1sRoofing+LLC+in+USA!3m6!1s0x89b8c3c2a21afca3:0xfd22051408eb0726!8m2!3d38.585393!4d-75.2938856!15sChJSb29maW5nIExMQyBpbiBVU0FaFCIScm9vZmluZyBsbGMgaW4gdXNhkgEScm9vZmluZ19jb250cmFjdG9y4AEA!16s%2Fg%2F11h2bkh039?entry=ttu&g_ep=EgoyMDI1MDIwMi4wIKXMDSoASAFQAw%3D%3D"
"USA Roofing & Gutters, LLC",4.8(60),"
J9QP+82 Trussville, Alabama, USA",+1 205-655-7663,https://www.usaroofing.us/contact-us/,N/A,,https://www.facebook.com/usaroofing/,N/A,"https://www.google.com/maps/place/USA+Roofing+%26+Gutters,+LLC/@36.9460981,-97.8754807,4z/data=!3m1!5s0x88890cf34d06afc5:0x8963c606f7c62fc6!4m10!1m2!2m1!1sRoofing+LLC+in+USA!3m6!1s0x88890ce2ec4d4923:0x86f9441ee456958d!8m2!3d33.6383431!4d-86.6149793!15sChJSb29maW5nIExMQyBpbiBVU0FaFCIScm9vZmluZyBsbGMgaW4gdXNhkgEScm9vZmluZ19jb250cmFjdG9y4AEA!16s%2Fg%2F11g_1pn8f?entry=ttu&g_ep=EgoyMDI1MDIwMi4wIKXMDSoASAFQAw%3D%3D"
US Roofing,4.9(264),"
CRH4+PG Grovetown, Georgia, USA",+1 855-877-6631,https://usroofing.us/,N/A,,https://www.facebook.com/usroofingaugusta/,N/A,"https://www.google.com/maps/place/US+Roofing/@36.9460981,-97.8754807,4z/data=!4m10!1m2!2m1!1sRoofing+LLC+in+USA!3m6!1s0x88f77fdd96485a39:0x651c3fcf085218dd!8m2!3d33.4293557!4d-82.1936392!15sChJSb29maW5nIExMQyBpbiBVU0FaFCIScm9vZmluZyBsbGMgaW4gdXNhkgEScm9vZmluZ19jb250cmFjdG9y4AEA!16s%2Fg%2F11g1lqhqjw?entry=ttu&g_ep=EgoyMDI1MDIwMi4wIKXMDSoASAFQAw%3D%3D"
USA Roofing & Waterproofing LLC,4.9(159),"
H68X+RC Portland, Oregon, USA",+1 503-836-5016,https://www.usaroofingpdx.com/,N/A,N/A,N/A,N/A,"https://www.google.com/maps/place/USA+Roofing+%26+Waterproofing+LLC/@36.9460981,-97.8754807,4z/data=!4m10!1m2!2m1!1sRoofing+LLC+in+USA!3m6!1s0x54944e29b4c6a791:0x5e3ce3aab12e3f5!8m2!3d45.5671019!4d-122.7514143!15sChJSb29maW5nIExMQyBpbiBVU0FaFCIScm9vZmluZyBsbGMgaW4gdXNhkgEScm9vZmluZ19jb250cmFjdG9ymgEkQ2hkRFNVaE5NRzluUzBWSlEwRm5TVVJvTlZwbU4yOUJSUkFC4AEA-gEECAAQTA!16s%2Fg%2F11ggrq6t2m?entry=ttu&g_ep=EgoyMDI1MDIwMi4wIKXMDSoASAFQAw%3D%3D"
USA Roofing LLC,4.2(5),"
JH9P+JC Opelika, Alabama, USA",+1 334-246-9996,N/A,N/A,N/A,N/A,N/A,"https://www.google.com/maps/place/USA+Roofing+LLC/@45.5671019,-161.7748518,4z/data=!4m10!1m2!2m1!1sRoofing+LLC+in+USA!3m6!1s0x888cf5e96f1d4797:0x32dcb67f635d0933!8m2!3d32.6190937!4d-85.4139705!15sChJSb29maW5nIExMQyBpbiBVU0FaFCIScm9vZmluZyBsbGMgaW4gdXNhkgEScm9vZmluZ19jb250cmFjdG9y4AEA!16s%2Fg%2F11swkg08f4?entry=ttu&g_ep=EgoyMDI1MDIwMi4wIKXMDSoASAFQAw%3D%3D"
USA Roofing | Roofing Company In Baton Rouge,4.9(31),"
9XH2+94 Baton Rouge, Louisiana, USA",+1 225-888-4610,https://usaroofinglouisiana.com/,Roofinginfo.usaroofing@gmail.com,,https://www.facebook.com/wix,N/A,"https://www.google.com/maps/place/USA+Roofing+%7C+Roofing+Company+In+Baton+Rouge/@45.5671019,-161.7748518,4z/data=!4m10!1m2!2m1!1sRoofing+LLC+in+USA!3m6!1s0x8626bb4878fe994b:0x3ca27acf1ab6af39!8m2!3d30.37845!4d-91.04972!15sChJSb29maW5nIExMQyBpbiBVU0FaFCIScm9vZmluZyBsbGMgaW4gdXNhkgEScm9vZmluZ19jb250cmFjdG9y4AEA!16s%2Fg%2F11h_6xlxwy?entry=ttu&g_ep=EgoyMDI1MDIwMi4wIKXMDSoASAFQAw%3D%3D"
USA Roofing LLC,4.6(9),"
MXH7+X7 Phoenix, Arizona, USA",+1 602-482-2411,http://usaroofingaz.com/,N/A,,N/A,N/A,"https://www.google.com/maps/place/USA+Roofing+LLC/@45.5671019,-161.7748518,4z/data=!4m10!1m2!2m1!1sRoofing+LLC+in+USA!3m6!1s0x872b7024de81ce55:0xb2a7d057091833b2!8m2!3d33.6799712!4d-112.0367847!15sChJSb29maW5nIExMQyBpbiBVU0FaFCIScm9vZmluZyBsbGMgaW4gdXNhkgEScm9vZmluZ19jb250cmFjdG9ymgEjQ2haRFNVaE5NRzluUzBWSlEwRm5TVVJvTTNWNldWaEJFQUXgAQD6AQQIMhA8!16s%2Fg%2F1v8x2nr4?entry=ttu&g_ep=EgoyMDI1MDIwMi4wIKXMDSoASAFQAw%3D%3D"
US Roofing,4.8(377),"
WMW3+P9 Tampa, Florida, USA",+1 888-965-0305,https://joinusroofing.com/,csr@joinusroofing.com,,https://www.facebook.com/joinusroofingflorida,N/A,"https://www.google.com/maps/place/US+Roofing/@45.5671019,-161.7748518,4z/data=!4m10!1m2!2m1!1sRoofing+LLC+in+USA!3m6!1s0x88c2cfcd8ee552b1:0x66a4c16e5a34f21e!8m2!3d27.9468192!4d-82.3466213!15sChJSb29maW5nIExMQyBpbiBVU0FaFCIScm9vZmluZyBsbGMgaW4gdXNhkgEScm9vZmluZ19jb250cmFjdG9ymgEjQ2haRFNVaE5NRzluUzBWSlEwRm5TVVJQYnpaUVJVeDNFQUXgAQD6AQQIABBC!16s%2Fg%2F11j9kqnz_c?entry=ttu&g_ep=EgoyMDI1MDIwMi4wIKXMDSoASAFQAw%3D%3D"
"USA Roofing & Gutters, LLC",4.9(84),"
H2WC+62 Decatur, Alabama, USA",+1 256-661-7663,https://www.usaroofing.us/contact-us/,N/A,,https://www.facebook.com/usaroofing/,N/A,"https://www.google.com/maps/place/USA+Roofing+%26+Gutters,+LLC/@45.5671019,-161.7748518,4z/data=!4m10!1m2!2m1!1sRoofing+LLC+in+USA!3m6!1s0x8862873056261c67:0xda353c4649e98e38!8m2!3d34.5955631!4d-86.9799764!15sChJSb29maW5nIExMQyBpbiBVU0FaFCIScm9vZmluZyBsbGMgaW4gdXNhkgEScm9vZmluZ19jb250cmFjdG9y4AEA!16s%2Fg%2F11fkmxngxv?entry=ttu&g_ep=EgoyMDI1MDIwMi4wIKXMDSoASAFQAw%3D%3D"
Jacksonville Roofing USA,4.8(175),"
77C4+Q4 Southwest, Jacksonville, FL, USA",+1 904-759-1037,https://jacksonvilleroofingusa.com/contact-jacksonville-roofing-usa/,N/A,,https://www.facebook.com/Jacksonville-Roofing-USA-LLC-168725184055402/,N/A,"https://www.google.com/maps/place/Jacksonville+Roofing+USA/@45.5671019,-161.7748518,4z/data=!4m10!1m2!2m1!1sRoofing+LLC+in+USA!3m6!1s0x88e5cbbad0e3674f:0xfb2cbf96ec6058dc!8m2!3d30.2718809!4d-81.7447117!15sChJSb29maW5nIExMQyBpbiBVU0FaFCIScm9vZmluZyBsbGMgaW4gdXNhkgEScm9vZmluZ19jb250cmFjdG9ymgEkQ2hkRFNVaE5NRzluUzBWSlEwRm5TVU5QYTNKeFdXOTNSUkFC4AEA-gEECCkQRg!16s%2Fg%2F11h095vwb7?entry=ttu&g_ep=EgoyMDI1MDIwMi4wIKXMDSoASAFQAw%3D%3D"
